STARLINK-32359          
1 61957U 24209U   26033.07862177  .00023329  00000+0  79735-3 0  9999
2 61957  53.1616 307.8902 0001875  58.4904 301.6280 15.30198765 69462
STARLINK-32566          
1 61958U 24209V   26033.05540289  .00013840  00000+0  47855-3 0  9990
2 61958  53.1593 307.7441 0001430  97.9777 262.1386 15.30198777 69468
STARLINK-32499          
1 61959U 24210A   26033.24381767  .00023949  00000+0  87648-3 0  9993
2 61959  42.9999  19.6049 0001474 280.6284  79.4401 15.27599563 69506
STARLINK-32372          
1 61960U 24210B   26032.98998567  .00031982  00000+0  11664-2 0  9997
2 61960  43.0022  21.1416 0000319 270.8361  89.2454 15.27588457 69324
STARLINK-32452          
1 61961U 24210C   26032.99996073  .00024338  00000+0  89027-3 0  9995
2 61961  43.0038  14.2946 0001269 266.1650  93.9056 15.27608555 69532
STARLINK-32458          
1 61962U 24210D   26033.23675672  .00029454  00000+0  10747-2 0  9999
2 61962  43.0014   5.7034 0001546 262.0080  98.0596 15.27607471 69654
STARLINK-32487          
1 61963U 24210E   26032.95414814  .00026342  00000+0  96257-3 0  9991
2 61963  42.9986  21.7203 0001573 180.1137 179.9715 15.27606223 69443
STARLINK-32513          
1 61964U 24210F   26033.22519261  .00031734  00000+0  11569-2 0  9998
2 61964  43.0024   5.6152 0000997 275.2638  84.8100 15.27602890 69655
STARLINK-32514          
1 61965U 24210G   26032.67687561  .00040575  00000+0  14757-2 0  9991
2 61965  43.0033  16.1682 0000350 329.0554  31.0277 15.27584482 69485
STARLINK-32498          
1 61966U 24210H   26033.27644437  .00025326  00000+0  92588-3 0  9990
2 61966  43.0039   5.1421 0001448 274.0355  86.0331 15.27608821 69663
STARLINK-32518          
1 61967U 24210J   26033.02946911  .00025017  00000+0  91541-3 0  9991
2 61967  43.0013  14.3235 0001054 249.6336 110.4402 15.27584723 69408
STARLINK-32471          
1 61968U 24210K   26032.99352326  .00020991  00000+0  76987-3 0  9991
2 61968  43.0017  14.2494 0000529 207.2337 152.8487 15.27592699 69545
STARLINK-32450          
1 61969U 24210L   26032.99737823  .00014519  00000+0  53591-3 0  9996
2 61969  43.0040  14.2760 0001422 242.1971 117.8736 15.27592153 69401
STARLINK-32613          
1 61970U 24210M   26033.29907135  .00022175  00000+0  81245-3 0  9991
2 61970  43.0028  20.0154 0001461 257.4551 102.6137 15.27598799 69507
STARLINK-32610          
1 61971U 24210N   26033.22597693  .00029462  00000+0  10753-2 0  9990
2 61971  43.0055  20.3284 0001682 282.9022  77.1642 15.27597761 69499
STARLINK-32612          
1 61972U 24210P   26033.29521521  .00038466  00000+0  13990-2 0  9995
2 61972  43.0024  19.9841 0001350 252.5097 107.5607 15.27605009 69467
