[{"OBJECT_NAME":"STARLINK-32359","OBJECT_ID":"2024-209U","EPOCH":"2026-02-02T01:53:12.920928","MEAN_MOTION":15.30198765,"ECCENTRICITY":0.00018751,"INCLINATION":53.1616,"RA_OF_ASC_NODE":307.8902,"ARG_OF_PERICENTER":58.4904,"MEAN_ANOMALY":301.628,"EPHEMERIS_TYPE":0,"CLASSIFICATION_TYPE":"U","NORAD_CAT_ID":61957,"ELEMENT_SET_NO":999,"REV_AT_EPOCH":6946,"BSTAR":0.000797349,"MEAN_MOTION_DOT":0.00023329,"MEAN_MOTION_DDOT":0},{"OBJECT_NAME":"STARLINK-32566","OBJECT_ID":"2024-209V","EPOCH":"2026-02-02T01:19:46.809696","MEAN_MOTION":15.30198777,"ECCENTRICITY":0.00014309,"INCLINATION":53.1593,"RA_OF_ASC_NODE":307.7441,"ARG_OF_PERICENTER":97.9777,"MEAN_ANOMALY":262.1386,"EPHEMERIS_TYPE":0,"CLASSIFICATION_TYPE":"U","NORAD_CAT_ID":61958,"ELEMENT_SET_NO":999,"REV_AT_EPOCH":6946,"BSTAR":0.00047855401,"MEAN_MOTION_DOT":0.0001384,"MEAN_MOTION_DDOT":0},{"OBJECT_NAME":"STARLINK-32499","OBJECT_ID":"2024-210A","EPOCH":"2026-02-02T05:51:05.846688","MEAN_MOTION":15.27599563,"ECCENTRICITY":0.00014747,"INCLINATION":42.9999,"RA_OF_ASC_NODE":19.6049,"ARG_OF_PERICENTER":280.6284,"MEAN_ANOMALY":79.4401,"EPHEMERIS_TYPE":0,"CLASSIFICATION_TYPE":"U","NORAD_CAT_ID":61959,"ELEMENT_SET_NO":999,"REV_AT_EPOCH":6950,"BSTAR":0.00087647509,"MEAN_MOTION_DOT":0.00023949,"MEAN_MOTION_DDOT":0},{"OBJECT_NAME":"STARLINK-32372","OBJECT_ID":"2024-210B","EPOCH":"2026-02-01T23:45:34.761888","MEAN_MOTION":15.27588457,"ECCENTRICITY":3.198e-5,"INCLINATION":43.0022,"RA_OF_ASC_NODE":21.1416,"ARG_OF_PERICENTER":270.8361,"MEAN_ANOMALY":89.2454,"EPHEMERIS_TYPE":0,"CLASSIFICATION_TYPE":"U","NORAD_CAT_ID":61960,"ELEMENT_SET_NO":999,"REV_AT_EPOCH":6932,"BSTAR":0.0011664029,"MEAN_MOTION_DOT":0.00031982,"MEAN_MOTION_DDOT":0},{"OBJECT_NAME":"STARLINK-32452","OBJECT_ID":"2024-210C","EPOCH":"2026-02-01T23:59:56.607072","MEAN_MOTION":15.27608555,"ECCENTRICITY":0.00012699,"INCLINATION":43.0038,"RA_OF_ASC_NODE":14.2946,"ARG_OF_PERICENTER":266.165,"MEAN_ANOMALY":93.9056,"EPHEMERIS_TYPE":0,"CLASSIFICATION_TYPE":"U","NORAD_CAT_ID":61961,"ELEMENT_SET_NO":999,"REV_AT_EPOCH":6953,"BSTAR":0.00089027398,"MEAN_MOTION_DOT":0.00024338,"MEAN_MOTION_DDOT":0},{"OBJECT_NAME":"STARLINK-32458","OBJECT_ID":"2024-210D","EPOCH":"2026-02-02T05:40:55.780608","MEAN_MOTION":15.27607471,"ECCENTRICITY":0.00015468,"INCLINATION":43.0014,"RA_OF_ASC_NODE":5.7034,"ARG_OF_PERICENTER":262.008,"MEAN_ANOMALY":98.0596,"EPHEMERIS_TYPE":0,"CLASSIFICATION_TYPE":"U","NORAD_CAT_ID":61962,"ELEMENT_SET_NO":999,"REV_AT_EPOCH":6965,"BSTAR":0.0010746929,"MEAN_MOTION_DOT":0.00029454,"MEAN_MOTION_DDOT":0},{"OBJECT_NAME":"STARLINK-32487","OBJECT_ID":"2024-210E","EPOCH":"2026-02-01T22:53:58.399296","MEAN_MOTION":15.27606223,"ECCENTRICITY":0.00015737,"INCLINATION":42.9986,"RA_OF_ASC_NODE":21.7203,"ARG_OF_PERICENTER":180.1137,"MEAN_ANOMALY":179.9715,"EPHEMERIS_TYPE":0,"CLASSIFICATION_TYPE":"U","NORAD_CAT_ID":61963,"ELEMENT_SET_NO":999,"REV_AT_EPOCH":6944,"BSTAR":0.00096257357,"MEAN_MOTION_DOT":0.00026342,"MEAN_MOTION_DDOT":0},{"OBJECT_NAME":"STARLINK-32513","OBJECT_ID":"2024-210F","EPOCH":"2026-02-02T05:24:16.641504","MEAN_MOTION":15.2760289,"ECCENTRICITY":9.973e-5,"INCLINATION":43.0024,"RA_OF_ASC_NODE":5.6152,"ARG_OF_PERICENTER":275.2638,"MEAN_ANOMALY":84.81,"EPHEMERIS_TYPE":0,"CLASSIFICATION_TYPE":"U","NORAD_CAT_ID":61964,"ELEMENT_SET_NO":999,"REV_AT_EPOCH":6965,"BSTAR":0.001156948,"MEAN_MOTION_DOT":0.00031734,"MEAN_MOTION_DDOT":0},{"OBJECT_NAME":"STARLINK-32514","OBJECT_ID":"2024-210G","EPOCH":"2026-02-01T16:14:42.052704","MEAN_MOTION":15.27584482,"ECCENTRICITY":3.508e-5,"INCLINATION":43.0033,"RA_OF_ASC_NODE":16.1682,"ARG_OF_PERICENTER":329.0554,"MEAN_ANOMALY":31.0277,"EPHEMERIS_TYPE":0,"CLASSIFICATION_TYPE":"U","NORAD_CAT_ID":61965,"ELEMENT_SET_NO":999,"REV_AT_EPOCH":6948,"BSTAR":0.0014757046,"MEAN_MOTION_DOT":0.00040575,"MEAN_MOTION_DDOT":0},{"OBJECT_NAME":"STARLINK-32498","OBJECT_ID":"2024-210H","EPOCH":"2026-02-02T06:38:04.793568","MEAN_MOTION":15.27608821,"ECCENTRICITY":0.00014482,"INCLINATION":43.0039,"RA_OF_ASC_NODE":5.1421,"ARG_OF_PERICENTER":274.0355,"MEAN_ANOMALY":86.0331,"EPHEMERIS_TYPE":0,"CLASSIFICATION_TYPE":"U","NORAD_CAT_ID":61966,"ELEMENT_SET_NO":999,"REV_AT_EPOCH":6966,"BSTAR":0.0009258776,"MEAN_MOTION_DOT":0.00025326,"MEAN_MOTION_DDOT":0},{"OBJECT_NAME":"STARLINK-32518","OBJECT_ID":"2024-210J","EPOCH":"2026-02-02T00:42:26.131104","MEAN_MOTION":15.27584723,"ECCENTRICITY":0.0001054,"INCLINATION":43.0013,"RA_OF_ASC_NODE":14.3235,"ARG_OF_PERICENTER":249.6336,"MEAN_ANOMALY":110.4402,"EPHEMERIS_TYPE":0,"CLASSIFICATION_TYPE":"U","NORAD_CAT_ID":61967,"ELEMENT_SET_NO":999,"REV_AT_EPOCH":6940,"BSTAR":0.0009154076,"MEAN_MOTION_DOT":0.00025017,"MEAN_MOTION_DDOT":0},{"OBJECT_NAME":"STARLINK-32471","OBJECT_ID":"2024-210K","EPOCH":"2026-02-01T23:50:40.409664","MEAN_MOTION":15.27592699,"ECCENTRICITY":5.291e-5,"INCLINATION":43.0017,"RA_OF_ASC_NODE":14.2494,"ARG_OF_PERICENTER":207.2337,"MEAN_ANOMALY":152.8487,"EPHEMERIS_TYPE":0,"CLASSIFICATION_TYPE":"U","NORAD_CAT_ID":61968,"ELEMENT_SET_NO":999,"REV_AT_EPOCH":6954,"BSTAR":0.00076986953,"MEAN_MOTION_DOT":0.00020991,"MEAN_MOTION_DDOT":0},{"OBJECT_NAME":"STARLINK-32450","OBJECT_ID":"2024-210L","EPOCH":"2026-02-01T23:56:13.479072","MEAN_MOTION":15.27592153,"ECCENTRICITY":0.00014224,"INCLINATION":43.004,"RA_OF_ASC_NODE":14.276,"ARG_OF_PERICENTER":242.1971,"MEAN_ANOMALY":117.8736,"EPHEMERIS_TYPE":0,"CLASSIFICATION_TYPE":"U","NORAD_CAT_ID":61969,"ELEMENT_SET_NO":999,"REV_AT_EPOCH":6940,"BSTAR":0.00053590778,"MEAN_MOTION_DOT":0.00014519,"MEAN_MOTION_DDOT":0},{"OBJECT_NAME":"STARLINK-32613","OBJECT_ID":"2024-210M","EPOCH":"2026-02-02T07:10:39.764640","MEAN_MOTION":15.27598799,"ECCENTRICITY":0.00014614,"INCLINATION":43.0028,"RA_OF_ASC_NODE":20.0154,"ARG_OF_PERICENTER":257.4551,"MEAN_ANOMALY":102.6137,"EPHEMERIS_TYPE":0,"CLASSIFICATION_TYPE":"U","NORAD_CAT_ID":61970,"ELEMENT_SET_NO":999,"REV_AT_EPOCH":6950,"BSTAR":0.00081244942,"MEAN_MOTION_DOT":0.00022175,"MEAN_MOTION_DDOT":0},{"OBJECT_NAME":"STARLINK-32610","OBJECT_ID":"2024-210N","EPOCH":"2026-02-02T05:25:24.406752","MEAN_MOTION":15.27597761,"ECCENTRICITY":0.00016824,"INCLINATION":43.0055,"RA_OF_ASC_NODE":20.3284,"ARG_OF_PERICENTER":282.9022,"MEAN_ANOMALY":77.1642,"EPHEMERIS_TYPE":0,"CLASSIFICATION_TYPE":"U","NORAD_CAT_ID":61971,"ELEMENT_SET_NO":999,"REV_AT_EPOCH":6949,"BSTAR":0.0010753093,"MEAN_MOTION_DOT":0.00029462,"MEAN_MOTION_DDOT":0},{"OBJECT_NAME":"STARLINK-32612","OBJECT_ID":"2024-210P","EPOCH":"2026-02-02T07:05:06.594144","MEAN_MOTION":15.27605009,"ECCENTRICITY":0.00013504,"INCLINATION":43.0024,"RA_OF_ASC_NODE":19.9841,"ARG_OF_PERICENTER":252.5097,"MEAN_ANOMALY":107.5607,"EPHEMERIS_TYPE":0,"CLASSIFICATION_TYPE":"U","NORAD_CAT_ID":61972,"ELEMENT_SET_NO":999,"REV_AT_EPOCH":6946,"BSTAR":0.0013990043,"MEAN_MOTION_DOT":0.00038466,"MEAN_MOTION_DDOT":0}]
